[{"OBJECT_NAME":"FENGYUN 1C DEB","OBJECT_ID":"1999-025BNM","EPOCH":"2026-04-25T05:56:55.550688","MEAN_MOTION":14.26673558,"ECCENTRICITY":0.0074166,"INCLINATION":98.5154,"RA_OF_ASC_NODE":124.9327,"ARG_OF_PERICENTER":146.531,"MEAN_ANOMALY":214.059,"EPHEMERIS_TYPE":0,"CLASSIFICATION_TYPE":"U","NORAD_CAT_ID":31279,"ELEMENT_SET_NO":999,"REV_AT_EPOCH":99132,"BSTAR":0.00036433,"MEAN_MOTION_DOT":8.65e-6,"MEAN_MOTION_DDOT":0},{"OBJECT_NAME":"FENGYUN 1C DEB","OBJECT_ID":"1999-025BNP","EPOCH":"2026-04-26T09:36:19.470240","MEAN_MOTION":15.29202384,"ECCENTRICITY":0.0088545,"INCLINATION":98.398,"RA_OF_ASC_NODE":272.2428,"ARG_OF_PERICENTER":350.6003,"MEAN_ANOMALY":9.3572,"EPHEMERIS_TYPE":0,"CLASSIFICATION_TYPE":"U","NORAD_CAT_ID":31281,"ELEMENT_SET_NO":999,"REV_AT_EPOCH":1749,"BSTAR":0.0011957,"MEAN_MOTION_DOT":0.00038214,"MEAN_MOTION_DDOT":0},{"OBJECT_NAME":"FENGYUN 1C DEB","OBJECT_ID":"1999-025BNQ","EPOCH":"2026-04-23T01:14:55.051584","MEAN_MOTION":14.43700734,"ECCENTRICITY":0.01264309,"INCLINATION":99.2232,"RA_OF_ASC_NODE":46.1562,"ARG_OF_PERICENTER":259.0602,"MEAN_ANOMALY":99.6341,"EPHEMERIS_TYPE":0,"CLASSIFICATION_TYPE":"U","NORAD_CAT_ID":31282,"ELEMENT_SET_NO":999,"REV_AT_EPOCH":99015,"BSTAR":0.00010185765,"MEAN_MOTION_DOT":3.23e-6,"MEAN_MOTION_DDOT":0},{"OBJECT_NAME":"FENGYUN 1C DEB","OBJECT_ID":"1999-025BNS","EPOCH":"2026-04-26T13:15:52.939584","MEAN_MOTION":13.98215396,"ECCENTRICITY":0.014268,"INCLINATION":99.7195,"RA_OF_ASC_NODE":223.8554,"ARG_OF_PERICENTER":56.1956,"MEAN_ANOMALY":305.2697,"EPHEMERIS_TYPE":0,"CLASSIFICATION_TYPE":"U","NORAD_CAT_ID":31284,"ELEMENT_SET_NO":999,"REV_AT_EPOCH":97046,"BSTAR":0.00037879,"MEAN_MOTION_DOT":5.4e-6,"MEAN_MOTION_DDOT":0},{"OBJECT_NAME":"FENGYUN 1C DEB","OBJECT_ID":"1999-025BNT","EPOCH":"2026-04-25T09:48:42.847200","MEAN_MOTION":14.26255341,"ECCENTRICITY":0.01997952,"INCLINATION":98.5363,"RA_OF_ASC_NODE":97.3926,"ARG_OF_PERICENTER":155.4721,"MEAN_ANOMALY":6.2316,"EPHEMERIS_TYPE":0,"CLASSIFICATION_TYPE":"U","NORAD_CAT_ID":31285,"ELEMENT_SET_NO":999,"REV_AT_EPOCH":99204,"BSTAR":0.00013971153,"MEAN_MOTION_DOT":3.68e-6,"MEAN_MOTION_DDOT":0},{"OBJECT_NAME":"FENGYUN 1C DEB","OBJECT_ID":"1999-025BNU","EPOCH":"2026-04-25T13:53:41.869248","MEAN_MOTION":14.24567725,"ECCENTRICITY":0.00767247,"INCLINATION":100.8581,"RA_OF_ASC_NODE":42.2788,"ARG_OF_PERICENTER":279.795,"MEAN_ANOMALY":79.4564,"EPHEMERIS_TYPE":0,"CLASSIFICATION_TYPE":"U","NORAD_CAT_ID":31286,"ELEMENT_SET_NO":999,"REV_AT_EPOCH":65924,"BSTAR":0.0021049921,"MEAN_MOTION_DOT":4.979e-5,"MEAN_MOTION_DDOT":0},{"OBJECT_NAME":"FENGYUN 1C DEB","OBJECT_ID":"1999-025BNV","EPOCH":"2026-04-23T03:41:39.527808","MEAN_MOTION":14.29052068,"ECCENTRICITY":0.0027615,"INCLINATION":99.3929,"RA_OF_ASC_NODE":184.1944,"ARG_OF_PERICENTER":49.3744,"MEAN_ANOMALY":310.9831,"EPHEMERIS_TYPE":0,"CLASSIFICATION_TYPE":"U","NORAD_CAT_ID":31287,"ELEMENT_SET_NO":999,"REV_AT_EPOCH":98562,"BSTAR":0.00090179929,"MEAN_MOTION_DOT":2.243e-5,"MEAN_MOTION_DDOT":0},{"OBJECT_NAME":"FENGYUN 1C DEB","OBJECT_ID":"1999-025BNW","EPOCH":"2026-04-25T23:18:31.197888","MEAN_MOTION":15.25602586,"ECCENTRICITY":0.00176212,"INCLINATION":98.7458,"RA_OF_ASC_NODE":297.6353,"ARG_OF_PERICENTER":220.2413,"MEAN_ANOMALY":299.7728,"EPHEMERIS_TYPE":0,"CLASSIFICATION_TYPE":"U","NORAD_CAT_ID":31288,"ELEMENT_SET_NO":999,"REV_AT_EPOCH":99581,"BSTAR":0.0074462442,"MEAN_MOTION_DOT":0.00194746,"MEAN_MOTION_DDOT":0},{"OBJECT_NAME":"FENGYUN 1C DEB","OBJECT_ID":"1999-025BPB","EPOCH":"2026-04-24T18:05:30.745248","MEAN_MOTION":14.30876375,"ECCENTRICITY":0.01257656,"INCLINATION":98.4218,"RA_OF_ASC_NODE":123.4443,"ARG_OF_PERICENTER":211.2073,"MEAN_ANOMALY":148.1601,"EPHEMERIS_TYPE":0,"CLASSIFICATION_TYPE":"U","NORAD_CAT_ID":31293,"ELEMENT_SET_NO":999,"REV_AT_EPOCH":67146,"BSTAR":4.3768001e-5,"MEAN_MOTION_DOT":8.1e-7,"MEAN_MOTION_DDOT":0},{"OBJECT_NAME":"FENGYUN 1C DEB","OBJECT_ID":"1999-025BPC","EPOCH":"2026-04-24T04:58:43.131360","MEAN_MOTION":14.15571475,"ECCENTRICITY":0.00987648,"INCLINATION":98.5518,"RA_OF_ASC_NODE":109.3928,"ARG_OF_PERICENTER":320.5633,"MEAN_ANOMALY":38.8381,"EPHEMERIS_TYPE":0,"CLASSIFICATION_TYPE":"U","NORAD_CAT_ID":31294,"ELEMENT_SET_NO":999,"REV_AT_EPOCH":98727,"BSTAR":0.0003012994,"MEAN_MOTION_DOT":5.75e-6,"MEAN_MOTION_DDOT":0},{"OBJECT_NAME":"FENGYUN 1C DEB","OBJECT_ID":"1999-025BPD","EPOCH":"2026-04-26T04:41:04.805664","MEAN_MOTION":13.96881188,"ECCENTRICITY":0.0076726,"INCLINATION":98.3262,"RA_OF_ASC_NODE":293.4277,"ARG_OF_PERICENTER":233.8298,"MEAN_ANOMALY":125.5753,"EPHEMERIS_TYPE":0,"CLASSIFICATION_TYPE":"U","NORAD_CAT_ID":31295,"ELEMENT_SET_NO":999,"REV_AT_EPOCH":97380,"BSTAR":0.00025942,"MEAN_MOTION_DOT":3.32e-6,"MEAN_MOTION_DDOT":0},{"OBJECT_NAME":"FENGYUN 1C DEB","OBJECT_ID":"1999-025BPE","EPOCH":"2026-04-26T06:36:46.681056","MEAN_MOTION":14.82263498,"ECCENTRICITY":0.0018033,"INCLINATION":99.0631,"RA_OF_ASC_NODE":52.6008,"ARG_OF_PERICENTER":144.5048,"MEAN_ANOMALY":215.7365,"EPHEMERIS_TYPE":0,"CLASSIFICATION_TYPE":"U","NORAD_CAT_ID":31296,"ELEMENT_SET_NO":999,"REV_AT_EPOCH":99335,"BSTAR":0.0051318,"MEAN_MOTION_DOT":0.00041262,"MEAN_MOTION_DDOT":0},{"OBJECT_NAME":"FENGYUN 1C DEB","OBJECT_ID":"1999-025BPF","EPOCH":"2026-04-25T09:08:06.177984","MEAN_MOTION":14.5764582,"ECCENTRICITY":0.01386905,"INCLINATION":98.9539,"RA_OF_ASC_NODE":267.1424,"ARG_OF_PERICENTER":76.7882,"MEAN_ANOMALY":338.1966,"EPHEMERIS_TYPE":0,"CLASSIFICATION_TYPE":"U","NORAD_CAT_ID":31297,"ELEMENT_SET_NO":999,"REV_AT_EPOCH":1247,"BSTAR":0.00026955821,"MEAN_MOTION_DOT":1.342e-5,"MEAN_MOTION_DDOT":0},{"OBJECT_NAME":"FENGYUN 1C DEB","OBJECT_ID":"1999-025BPJ","EPOCH":"2026-04-26T05:21:17.548128","MEAN_MOTION":14.15843797,"ECCENTRICITY":0.0060233,"INCLINATION":99.533,"RA_OF_ASC_NODE":209.8684,"ARG_OF_PERICENTER":46.4935,"MEAN_ANOMALY":342.5659,"EPHEMERIS_TYPE":0,"CLASSIFICATION_TYPE":"U","NORAD_CAT_ID":31300,"ELEMENT_SET_NO":999,"REV_AT_EPOCH":98077,"BSTAR":0.001069,"MEAN_MOTION_DOT":2.09e-5,"MEAN_MOTION_DDOT":0},{"OBJECT_NAME":"FENGYUN 1C DEB","OBJECT_ID":"1999-025BPL","EPOCH":"2026-04-26T09:43:52.670208","MEAN_MOTION":14.2848508,"ECCENTRICITY":0.0026803,"INCLINATION":99.4001,"RA_OF_ASC_NODE":173.7664,"ARG_OF_PERICENTER":34.3038,"MEAN_ANOMALY":345.2498,"EPHEMERIS_TYPE":0,"CLASSIFICATION_TYPE":"U","NORAD_CAT_ID":31302,"ELEMENT_SET_NO":999,"REV_AT_EPOCH":98280,"BSTAR":0.0013325,"MEAN_MOTION_DOT":3.301e-5,"MEAN_MOTION_DDOT":0},{"OBJECT_NAME":"FENGYUN 1C DEB","OBJECT_ID":"1999-025BPM","EPOCH":"2026-04-26T12:21:29.487168","MEAN_MOTION":14.11086588,"ECCENTRICITY":0.0012068,"INCLINATION":98.6966,"RA_OF_ASC_NODE":133.5338,"ARG_OF_PERICENTER":130.3507,"MEAN_ANOMALY":229.8721,"EPHEMERIS_TYPE":0,"CLASSIFICATION_TYPE":"U","NORAD_CAT_ID":31303,"ELEMENT_SET_NO":999,"REV_AT_EPOCH":98219,"BSTAR":8.3794e-5,"MEAN_MOTION_DOT":1.08e-6,"MEAN_MOTION_DDOT":0},{"OBJECT_NAME":"FENGYUN 1C DEB","OBJECT_ID":"1999-025BPP","EPOCH":"2026-04-26T12:04:31.829088","MEAN_MOTION":14.30989598,"ECCENTRICITY":0.0018407,"INCLINATION":98.8425,"RA_OF_ASC_NODE":205.1246,"ARG_OF_PERICENTER":55.6848,"MEAN_ANOMALY":323.0357,"EPHEMERIS_TYPE":0,"CLASSIFICATION_TYPE":"U","NORAD_CAT_ID":31311,"ELEMENT_SET_NO":999,"REV_AT_EPOCH":98148,"BSTAR":0.0015154,"MEAN_MOTION_DOT":3.949e-5,"MEAN_MOTION_DDOT":0},{"OBJECT_NAME":"FENGYUN 1C DEB","OBJECT_ID":"1999-025BPQ","EPOCH":"2026-04-25T22:42:29.329920","MEAN_MOTION":14.01107069,"ECCENTRICITY":0.00572414,"INCLINATION":98.8727,"RA_OF_ASC_NODE":102.7674,"ARG_OF_PERICENTER":222.1216,"MEAN_ANOMALY":196.6607,"EPHEMERIS_TYPE":0,"CLASSIFICATION_TYPE":"U","NORAD_CAT_ID":31312,"ELEMENT_SET_NO":999,"REV_AT_EPOCH":97025,"BSTAR":0.00017456405,"MEAN_MOTION_DOT":2.23e-6,"MEAN_MOTION_DDOT":0},{"OBJECT_NAME":"FENGYUN 1C DEB","OBJECT_ID":"1999-025BPR","EPOCH":"2026-04-25T12:44:12.262272","MEAN_MOTION":14.22468159,"ECCENTRICITY":0.0045023,"INCLINATION":99.0103,"RA_OF_ASC_NODE":27.3946,"ARG_OF_PERICENTER":157.3903,"MEAN_ANOMALY":202.9271,"EPHEMERIS_TYPE":0,"CLASSIFICATION_TYPE":"U","NORAD_CAT_ID":31313,"ELEMENT_SET_NO":999,"REV_AT_EPOCH":98964,"BSTAR":0.0002097465,"MEAN_MOTION_DOT":4.26e-6,"MEAN_MOTION_DDOT":0},{"OBJECT_NAME":"FENGYUN 1C DEB","OBJECT_ID":"1999-025BPS","EPOCH":"2026-04-24T06:07:50.625984","MEAN_MOTION":14.05061634,"ECCENTRICITY":0.00784116,"INCLINATION":98.8314,"RA_OF_ASC_NODE":109.7018,"ARG_OF_PERICENTER":346.4936,"MEAN_ANOMALY":13.4133,"EPHEMERIS_TYPE":0,"CLASSIFICATION_TYPE":"U","NORAD_CAT_ID":31314,"ELEMENT_SET_NO":999,"REV_AT_EPOCH":62675,"BSTAR":0.0002453726,"MEAN_MOTION_DOT":3.63e-6,"MEAN_MOTION_DDOT":0},{"OBJECT_NAME":"FENGYUN 1C DEB","OBJECT_ID":"1999-025BPX","EPOCH":"2026-04-26T12:43:39.178848","MEAN_MOTION":13.75877937,"ECCENTRICITY":0.01708,"INCLINATION":98.8189,"RA_OF_ASC_NODE":10.5149,"ARG_OF_PERICENTER":87.2827,"MEAN_ANOMALY":33.4346,"EPHEMERIS_TYPE":0,"CLASSIFICATION_TYPE":"U","NORAD_CAT_ID":31319,"ELEMENT_SET_NO":999,"REV_AT_EPOCH":95541,"BSTAR":0.00015167,"MEAN_MOTION_DOT":1.25e-6,"MEAN_MOTION_DDOT":0},{"OBJECT_NAME":"FENGYUN 1C DEB","OBJECT_ID":"1999-025BPZ","EPOCH":"2026-04-22T23:16:44.577696","MEAN_MOTION":14.13902527,"ECCENTRICITY":0.00302967,"INCLINATION":98.7165,"RA_OF_ASC_NODE":193.7002,"ARG_OF_PERICENTER":163.4095,"MEAN_ANOMALY":196.8076,"EPHEMERIS_TYPE":0,"CLASSIFICATION_TYPE":"U","NORAD_CAT_ID":31321,"ELEMENT_SET_NO":999,"REV_AT_EPOCH":59238,"BSTAR":9.9944416e-5,"MEAN_MOTION_DOT":1.47e-6,"MEAN_MOTION_DDOT":0},{"OBJECT_NAME":"FENGYUN 1C DEB","OBJECT_ID":"1999-025BQA","EPOCH":"2026-04-24T09:32:36.155616","MEAN_MOTION":13.73065536,"ECCENTRICITY":0.02385073,"INCLINATION":98.5486,"RA_OF_ASC_NODE":169.3423,"ARG_OF_PERICENTER":15.103,"MEAN_ANOMALY":47.2049,"EPHEMERIS_TYPE":0,"CLASSIFICATION_TYPE":"U","NORAD_CAT_ID":31322,"ELEMENT_SET_NO":999,"REV_AT_EPOCH":64096,"BSTAR":0.00010620387,"MEAN_MOTION_DOT":8.3e-7,"MEAN_MOTION_DDOT":0}]
